{"type": "FeatureCollection", "features": [ {"type": "Feature", "properties": {"norad_id": 67073, "name": "RAISE-4", "group": "last-30-days", "lat": 51.01414994597282, "lon": -22.102031784786504, "alt_km": 545.9014996657288, "timestamp": "2025-12-27T09:28:55.186893+00:00", "meta": {"OBJECT_NAME": "RAISE-4", "OBJECT_ID": "2025-297B", "EPOCH": "2025-12-26T21:45:38.069568", "MEAN_MOTION": 15.07251265, "ECCENTRICITY": 0.00116854, "INCLINATION": 97.4853, "RA_OF_ASC_NODE": 148.0738, "ARG_OF_PERICENTER": 267.6783, "MEAN_ANOMALY": 92.3107, "EPHEMERIS_TYPE": 0, "CLASSIFICATION_TYPE": "U", "NORAD_CAT_ID": 67073, "ELEMENT_SET_NO": 999, "REV_AT_EPOCH": 192, "BSTAR": 0.00044339694, "MEAN_MOTION_DOT": 6.635e-05, "MEAN_MOTION_DDOT": 0}, "tle": {"line1": "1 67073U 25297B   25360.90669062  .00006635  00000+0  44340-3 0  9999", "line2": "2 67073  97.4853 148.0738 0011685 267.6783  92.3107 15.07251265  1920"}}, "geometry": {"type": "Point", "coordinates": [-22.102031784786504, 51.01414994597282]}}, {"type": "Feature", "properties": {"norad_id": 67074, "name": "ELECTRON KICK STAGE R/B", "group": "last-30-days", "lat": -15.964789122403438, "lon": 151.73468901125435, "alt_km": 463.30212657565335, "timestamp": "2025-12-27T09:28:55.186903+00:00", "meta": {"OBJECT_NAME": "ELECTRON KICK STAGE R/B", "OBJECT_ID": "2025-297C", "EPOCH": "2025-12-27T03:23:59.939808", "MEAN_MOTION": 15.61270554, "ECCENTRICITY": 0.018519, "INCLINATION": 97.4808, "RA_OF_ASC_NODE": 149.3126, "ARG_OF_PERICENTER": 217.2258, "MEAN_ANOMALY": 141.6045, "EPHEMERIS_TYPE": 0, "CLASSIFICATION_TYPE": "U", "NORAD_CAT_ID": 67074, "ELEMENT_SET_NO": 999, "REV_AT_EPOCH": 202, "BSTAR": 0.0019472, "MEAN_MOTION_DOT": 0.00396589, "MEAN_MOTION_DDOT": 4.5547e-05}, "tle": {"line1": "1 67074U 25297C   25361.14166597  .00396589  45547-4  19472-2 0  9999", "line2": "2 67074  97.4808 149.3126 0185190 217.2258 141.6045 15.61270554  2020"}}, "geometry": {"type": "Point", "coordinates": [151.73468901125435, -15.964789122403438]}}, {"type": "Feature", "properties": {"norad_id": 67075, "name": "STARLINK-36230", "group": "last-30-days", "lat": -42.180301135962296, "lon": 47.58835519042234, "alt_km": 355.82197126628853, "timestamp": "2025-12-27T09:28:55.186914+00:00", "meta": {"OBJECT_NAME": "STARLINK-36230", "OBJECT_ID": "2025-298A", "EPOCH": "2025-12-27T04:00:01.998720", "MEAN_MOTION": 15.73576332, "ECCENTRICITY": 0.0003833, "INCLINATION": 70.0013, "RA_OF_ASC_NODE": 208.9633, "ARG_OF_PERICENTER": 277.4485, "MEAN_ANOMALY": 95.047, "EPHEMERIS_TYPE": 0, "CLASSIFICATION_TYPE": "U", "NORAD_CAT_ID": 67075, "ELEMENT_SET_NO": 999, "REV_AT_EPOCH": 329, "BSTAR": -0.014241, "MEAN_MOTION_DOT": -0.01758549, "MEAN_MOTION_DDOT": 0}, "tle": {"line1": "1 67075U 25298A   25361.16668980 -.01758549  00000+0 -14241-1 0  9995", "line2": "2 67075  70.0013 208.9633 0003833 277.4485  95.0470 15.73576332  3294"}}, "geometry": {"type": "Point", "coordinates": [47.58835519042234, -42.180301135962296]}}, {"type": "Feature", "properties": {"norad_id": 67076, "name": "STARLINK-36240", "group": "last-30-days", "lat": -43.883605264899224, "lon": 48.82086352909495, "alt_km": 355.86564442753206, "timestamp": "2025-12-27T09:28:55.186924+00:00", "meta": {"OBJECT_NAME": "STARLINK-36240", "OBJECT_ID": "2025-298B", "EPOCH": "2025-12-27T04:00:01.998720", "MEAN_MOTION": 15.73575485, "ECCENTRICITY": 0.0003766, "INCLINATION": 70.0013, "RA_OF_ASC_NODE": 208.9608, "ARG_OF_PERICENTER": 277.8043, "MEAN_ANOMALY": 96.621, "EPHEMERIS_TYPE": 0, "CLASSIFICATION_TYPE": "U", "NORAD_CAT_ID": 67076, "ELEMENT_SET_NO": 999, "REV_AT_EPOCH": 329, "BSTAR": -0.014233, "MEAN_MOTION_DOT": -0.01757606, "MEAN_MOTION_DDOT": 0}, "tle": {"line1": "1 67076U 25298B   25361.16668980 -.01757606  00000+0 -14233-1 0  9990", "line2": "2 67076  70.0013 208.9608 0003766 277.8043  96.6210 15.73575485  3293"}}, "geometry": {"type": "Point", "coordinates": [48.82086352909495, -43.883605264899224]}}, {"type": "Feature", "properties": {"norad_id": 67077, "name": "STARLINK-36243", "group": "last-30-days", "lat": -45.75656388278698, "lon": 50.2734900979639, "alt_km": 355.89119191212285, "timestamp": "2025-12-27T09:28:55.186941+00:00", "meta": {"OBJECT_NAME": "STARLINK-36243", "OBJECT_ID": "2025-298C", "EPOCH": "2025-12-27T04:00:01.998720", "MEAN_MOTION": 15.73568, "ECCENTRICITY": 0.0003804, "INCLINATION": 70.0011, "RA_OF_ASC_NODE": 208.9581, "ARG_OF_PERICENTER": 278.2168, "MEAN_ANOMALY": 98.3575, "EPHEMERIS_TYPE": 0, "CLASSIFICATION_TYPE": "U", "NORAD_CAT_ID": 67077, "ELEMENT_SET_NO": 999, "REV_AT_EPOCH": 329, "BSTAR": -0.014293, "MEAN_MOTION_DOT": -0.01763596, "MEAN_MOTION_DDOT": 0}, "tle": {"line1": "1 67077U 25298C   25361.16668980 -.01763596  00000+0 -14293-1 0  9992", "line2": "2 67077  70.0011 208.9581 0003804 278.2168  98.3575 15.73568000  3296"}}, "geometry": {"type": "Point", "coordinates": [50.2734900979639, -45.75656388278698]}}, {"type": "Feature", "properties": {"norad_id": 67078, "name": "STARLINK-36236", "group": "last-30-days", "lat": -47.34601063242329, "lon": 51.59761281220399, "alt_km": 355.8697932334535, "timestamp": "2025-12-27T09:28:55.186952+00:00", "meta": {"OBJECT_NAME": "STARLINK-36236", "OBJECT_ID": "2025-298D", "EPOCH": "2025-12-27T04:00:01.998720", "MEAN_MOTION": 15.73566253, "ECCENTRICITY": 0.0003862, "INCLINATION": 70.0013, "RA_OF_ASC_NODE": 208.956, "ARG_OF_PERICENTER": 278.9178, "MEAN_ANOMALY": 99.4912, "EPHEMERIS_TYPE": 0, "CLASSIFICATION_TYPE": "U", "NORAD_CAT_ID": 67078, "ELEMENT_SET_NO": 999, "REV_AT_EPOCH": 329, "BSTAR": -0.014207, "MEAN_MOTION_DOT": -0.01754273, "MEAN_MOTION_DDOT": 0}, "tle": {"line1": "1 67078U 25298D   25361.16668980 -.01754273  00000+0 -14207-1 0  9990", "line2": "2 67078  70.0013 208.9560 0003862 278.9178  99.4912 15.73566253  3293"}}, "geometry": {"type": "Point", "coordinates": [51.59761281220399, -47.34601063242329]}}, {"type": "Feature", "properties": {"norad_id": 67079, "name": "STARLINK-36159", "group": "last-30-days", "lat": -49.115929636378674, "lon": 53.1903730963442, "alt_km": 356.6263715391224, "timestamp": "2025-12-27T09:28:55.186962+00:00", "meta": {"OBJECT_NAME": "STARLINK-36159", "OBJECT_ID": "2025-298E", "EPOCH": "2025-12-27T04:00:01.998720", "MEAN_MOTION": 15.73638704, "ECCENTRICITY": 0.0003916, "INCLINATION": 69.9992, "RA_OF_ASC_NODE": 208.9538, "ARG_OF_PERICENTER": 277.9484, "MEAN_ANOMALY": 102.6089, "EPHEMERIS_TYPE": 0, "CLASSIFICATION_TYPE": "U", "NORAD_CAT_ID": 67079, "ELEMENT_SET_NO": 999, "REV_AT_EPOCH": 329, "BSTAR": -0.019739, "MEAN_MOTION_DOT": -0.02390866, "MEAN_MOTION_DDOT": 0}, "tle": {"line1": "1 67079U 25298E   25361.16668980 -.02390866  00000+0 -19739-1 0  9991", "line2": "2 67079  69.9992 208.9538 0003916 277.9484 102.6089 15.73638704  3294"}}, "geometry": {"type": "Point", "coordinates": [53.1903730963442, -49.115929636378674]}}, {"type": "Feature", "properties": {"norad_id": 67080, "name": "STARLINK-36158", "group": "last-30-days", "lat": -50.938893449336994, "lon": 54.971141122414096, "alt_km": 355.915635918278, "timestamp": "2025-12-27T09:28:55.186972+00:00", "meta": {"OBJECT_NAME": "STARLINK-36158", "OBJECT_ID": "2025-298F", "EPOCH": "2025-12-27T04:00:01.998720", "MEAN_MOTION": 15.73551521, "ECCENTRICITY": 0.0003698, "INCLINATION": 70.0015, "RA_OF_ASC_NODE": 208.9506, "ARG_OF_PERICENTER": 276.3373, "MEAN_ANOMALY": 106.307, "EPHEMERIS_TYPE": 0, "CLASSIFICATION_TYPE": "U", "NORAD_CAT_ID": 67080, "ELEMENT_SET_NO": 999, "REV_AT_EPOCH": 323, "BSTAR": -0.01435, "MEAN_MOTION_DOT": -0.01768626, "MEAN_MOTION_DDOT": 0}, "tle": {"line1": "1 67080U 25298F   25361.16668980 -.01768626  00000+0 -14350-1 0  9999", "line2": "2 67080  70.0015 208.9506 0003698 276.3373 106.3070 15.73551521  3233"}}, "geometry": {"type": "Point", "coordinates": [54.971141122414096, -50.938893449336994]}}, {"type": "Feature", "properties": {"norad_id": 67081, "name": "STARLINK-35864", "group": "last-30-days", "lat": -52.56222868560161, "lon": 56.70971051688241, "alt_km": 355.9468730544768, "timestamp": "2025-12-27T09:28:55.186982+00:00", "meta": {"OBJECT_NAME": "STARLINK-35864", "OBJECT_ID": "2025-298G", "EPOCH": "2025-12-27T04:00:01.998720", "MEAN_MOTION": 15.73553222, "ECCENTRICITY": 0.0003773, "INCLINATION": 70.0014, "RA_OF_ASC_NODE": 208.9486, "ARG_OF_PERICENTER": 279.3741, "MEAN_ANOMALY": 105.2218, "EPHEMERIS_TYPE": 0, "CLASSIFICATION_TYPE": "U", "NORAD_CAT_ID": 67081, "ELEMENT_SET_NO": 999, "REV_AT_EPOCH": 329, "BSTAR": -0.014345, "MEAN_MOTION_DOT": -0.01768282, "MEAN_MOTION_DDOT": 0}, "tle": {"line1": "1 67081U 25298G   25361.16668980 -.01768282  00000+0 -14345-1 0  9992", "line2": "2 67081  70.0014 208.9486 0003773 279.3741 105.2218 15.73553222  3294"}}, "geometry": {"type": "Point", "coordinates": [56.70971051688241, -52.56222868560161]}}, {"type": "Feature", "properties": {"norad_id": 67082, "name": "STARLINK-36035", "group": "last-30-days", "lat": -54.214402891526696, "lon": 58.649818256104375, "alt_km": 355.97132599343695, "timestamp": "2025-12-27T09:28:55.186992+00:00", "meta": {"OBJECT_NAME": "STARLINK-36035", "OBJECT_ID": "2025-298H", "EPOCH": "2025-12-27T04:00:01.998720", "MEAN_MOTION": 15.73545152, "ECCENTRICITY": 0.0003827, "INCLINATION": 70.0014, "RA_OF_ASC_NODE": 208.9463, "ARG_OF_PERICENTER": 281.0681, "MEAN_ANOMALY": 105.5559, "EPHEMERIS_TYPE": 0, "CLASSIFICATION_TYPE": "U", "NORAD_CAT_ID": 67082, "ELEMENT_SET_NO": 999, "REV_AT_EPOCH": 329, "BSTAR": -0.014339, "MEAN_MOTION_DOT": -0.01767094, "MEAN_MOTION_DDOT": 0}, "tle": {"line1": "1 67082U 25298H   25361.16668980 -.01767094  00000+0 -14339-1 0  9996", "line2": "2 67082  70.0014 208.9463 0003827 281.0681 105.5559 15.73545152  3297"}}, "geometry": {"type": "Point", "coordinates": [58.649818256104375, -54.214402891526696]}}]}